#dP2024  6 22  6  0  0.00000000      96 __u+U IGS20 EXT  IAC
## 2319 540000.00000000   900.00000000 60483 0.2500000000000
+   54   G02G03G04G05G06G07G08G09G10G11G12G13G14G15G16G17G18
+        G19G20G21G22G23G24G25G26G27G28G29G30G31G32R01R02R03
+        R04R05R07R08R09R11R12R13R14R15R16R17R18R19R20R21R22
+        R24R25R26  0  0  0  0  0  0  0  0  0  0  0  0  0  0
+          0  0  0  0  0  0  0  0  0  0  0  0  0  0  0  0  0
++         7  8  7  9  8  8  8  9  7  9  8  8  9  9  8 10  7
++         7  7  7  9 10  8  8  9  7  8 10  8  8  8  9  9  8
++        10  8  7  7  9  8  8  8  9  7  8  7  9  9 10  9  8
++         9  9  8  0  0  0  0  0  0  0  0  0  0  0  0  0  0
++         0  0  0  0  0  0  0  0  0  0  0  0  0  0  0  0  0
%c M  cc GPS ccc cccc cccc cccc cccc ccccc ccccc ccccc ccccc
%c cc cc ccc ccc cccc cccc cccc cccc ccccc ccccc ccccc ccccc
%f  0.0000000  0.000000000  0.00000000000  0.000000000000000
%f  0.0000000  0.000000000  0.00000000000  0.000000000000000
%i    0    0    0    0      0      0      0      0         0
%i    0    0    0    0      0      0      0      0         0
/* IAC                                ULTRA-RAPID PREDICTION
/* S/V CLOCKS ARE ALIGNED TO GNSS TIME                      
/* G:C1WC2W R:C1PC2P E:C1XC5X C:C2IC6I J:C1CC2S             
/* PCV:IGS20_2317 OL/AL:FES2004  NONE     YN ORB:CoN CLK:CoN
*  2024 06 22 12  0  0.00000000
PG02  14362.790221  -6466.107630  21824.921608   -413.003484
PG03  23132.984148 -12681.498997   2289.881571    425.288186
PG04  19545.182648  -3013.808473 -17778.794743    388.538074
PG05 -21135.138521   1241.113758 -16271.312458   -177.208421
PG06  -5283.920286 -24967.159226  -7093.082458    204.293543
PG07   6328.844177 -23248.124890 -10114.667991    -86.495336
PG08  24714.781698   4827.797548   8982.936599    241.597733
PG09   8603.039126 -12758.724664 -21733.391447    244.492189
PG10   -396.399212  16605.539632  20851.783001    -48.509655
PG11 -12168.423024 -15543.829644 -17775.111268   -690.695855
PG12 -24258.702562   9801.105219   4131.435553   -516.218850
PG13 -22609.040287 -13820.774542   2969.856283    659.663048
PG14   4539.974862 -18357.572198  18603.214426    431.458598
PG15 -25015.040630  -1974.659803   8485.246060    172.936985
PG16  19683.695751   3924.584046 -17945.968618   -257.271195
PG17  -5186.630096 -18304.455143  18885.477791    690.664918
PG18  -6322.690646  23642.981589 -10046.640262   -628.090056
PG19 -14156.798604 -19249.133600  11844.353293    500.006933
PG20 -14948.333883  -6411.481951 -20905.388178    373.560104
PG21  15556.279481    447.027164  22007.230971    113.799365
PG22  -3222.462753 -15457.242726  21807.650363    -30.523465
PG23 -12191.809563  19171.920970  13610.774190    256.382202
PG24 -15103.545696   4229.129570  20988.214368   -479.306771
PG25 -19671.597995  17053.422507  -4838.905463    497.675413
PG26   9203.563743  13003.316846 -21397.602909    132.756484
PG27  23284.007583  13196.942253  -1529.122933    -29.059276
PG28   5045.685870  25677.938532  -4555.135939   -299.927778
PG29 -12410.315125   9574.155783 -21508.643801   -593.070316
PG30   -895.409149 -26395.266113   -184.141373   -370.122313
PG31  10808.818104  19204.834968 -14754.502823   -227.251624
PG32   8700.445237  18218.313344  17573.961000   -615.380954
PR01 -19570.972013   5693.267907  15350.166601     89.164199
PR02  -3205.902134  10427.437276  23100.141956    -23.388792
PR03  15370.314635  10073.589907  17765.091261    102.556550
PR04  24961.138812   4398.940157   2957.313008    242.249648
PR05  21355.717353  -3618.158682 -13477.425939    133.489345
PR07 -15975.533030  -9887.567195 -17187.208560     85.107208
PR08 -25037.171957  -4018.671666  -2553.142056     -5.233211
PR09   9539.779887 -21836.016653   9007.293035    193.630625
PR11 -12971.100775    173.060501  21980.731556     20.591622
PR12 -17273.700590  16549.591439   8870.414005     41.611325
PR13 -11573.782059  21774.848040  -6532.543147    -48.579533
PR14   2578.737142  14062.592120 -21113.168019     26.626640
PR15  13848.677657  -1573.278055 -21336.607679     78.583509
PR16  17151.793798 -16536.040145  -9045.101270     26.719474
PR17  11561.051528  22390.525263   3811.793285     98.103229
PR18  13732.208325  11651.858277  18094.668270    148.268325
PR19   9928.815926  -3160.521786  23275.946988   -281.230382
PR20  -1226.044941 -21129.069144  14212.920157   -114.905192
PR21 -11257.604515 -22640.482415  -3493.721793   -111.394772
PR22 -13646.089107 -10754.278932 -18650.096060     99.434889
PR24   2246.659688  21437.788689 -13614.007132    -60.859351
PR25 -10840.218041 -22740.725490  -4080.082371    -75.939845
PR26 -24805.451153  -4492.697646  -3960.141803     -5.754060
*  2024 06 22 12 15  0.00000000
PG02  14774.799395  -4085.889874  22156.205345   -412.997068
PG03  22872.054886 -12272.622590   5158.700327    425.304097
PG04  21181.531228  -1983.573772 -15970.595154    388.545285
PG05 -19671.424067    -20.006065 -18067.282805   -177.209657
PG06  -5146.058202 -25633.649793  -4272.736496    204.274144
PG07   6714.966533 -21887.124746 -12537.208519    -86.486780
PG08  25427.767470   5395.012983   6349.643994    241.613671
PG09  10816.482731 -11716.121001 -21330.955835    244.505370
PG10  -2333.041132  17810.466793  19657.305771    -48.517423
PG11 -12067.199754 -17478.028955 -15962.254462   -690.702852
PG12 -23810.567031   9250.621920   6899.407486   -516.221777
PG13 -22657.850610 -14102.779377    113.487890    659.665378
PG14   6353.465222 -19314.016637  17014.418206    431.466750
PG15 -25766.569664  -2520.981888   5854.281277    172.940742
PG16  17932.661472   5019.925485 -19433.801297   -257.261657
PG17  -3250.984712 -17340.138647  20224.825061    690.659446
PG18  -6592.202583  22357.763385 -12526.578859   -628.094275
PG19 -12796.785920 -18602.178644  14131.769405    500.011777
PG20 -13241.773938  -8158.171412 -21452.164334    373.559773
PG21  15954.783010   2809.040332  21625.252629    113.797089
PG22  -1132.047071 -16571.729174  21202.861907    -30.527808
PG23 -13449.326047  19856.917180  11212.834202    256.390392
PG24 -15548.877229   1763.413838  21051.243527   -479.308858
PG25 -20137.902338  17015.828000  -2025.203502    497.675848
PG26   7293.171898  14482.648271 -21147.759298    132.750721
PG27  22920.849294  13262.985384  -4337.212121    -29.060396
PG28   4831.934605  26060.919057  -1729.231026   -299.942727
PG29 -14459.625783   8320.112063 -20745.336891   -593.068809
PG30   -532.169096 -26220.845938  -2995.088979   -370.116694
PG31  10654.090723  20759.034461 -12530.415001   -227.251443
PG32   6791.206394  17451.897978  19125.537281   -615.379745
PR01 -21311.580100   5725.881085  12811.307620     89.165263
PR02  -6009.412425  10203.732947  22630.036789    -23.388928
PR03  13087.501071   9795.996710  19648.951716    102.557208
PR04  24422.335280   4172.859114   6121.252414    242.250874
PR05  22859.603883  -3637.442156 -10729.144717    133.489815
PR07 -13736.206658  -9612.986320 -19164.124523     85.107970
PR08 -24532.150224  -3819.292143  -5722.754152     -5.233457
PR09   9968.892543 -22658.069053   5995.120542    193.632616
PR11 -11412.031165  -2098.708819  22731.882088     20.590536
PR12 -16465.513771  15566.642654  11734.676351     41.611743
PR13 -11805.549813  22355.254481  -3405.192008    -48.579720
PR14   1228.616213  16188.912507 -19665.104684     26.626581
PR15  12302.746966    638.695207 -22309.969139     78.583210
PR16  16318.824414 -15533.442101 -11909.068508     26.719759
PR17  11845.704219  22557.213030    591.517265     98.106332
PR18  14731.938350  13500.030457  15892.393214    148.270019
PR19  11054.295182   -531.080019  22974.694752   -281.231619
PR20   -641.935123 -19305.339466  16641.355804   -114.905635
PR21 -11538.949917 -22765.819566   -269.135766   -111.397640
PR22 -14587.337207 -12721.948648 -16586.919371     99.430358
PR24   1569.960285  19728.704948 -16070.858435    -60.860692
PR25 -11096.116552 -22965.253320   -888.400033    -75.967894
PR26 -24134.787083  -4281.709715  -7085.138801     -5.753271
EOF
